{
  "type": "FeatureCollection",
  "features": [
    {
      "type": "Feature",
      "properties": {
        "norad_id": 38833,
        "name": "GPS BIIF-3  (PRN 24)",
        "group": "gps-ops",
        "lat": -28.767060020934856,
        "lon": -5.290063037236061,
        "alt_km": 20598.499762711923,
        "timestamp": "2025-12-23T14:49:09.649124+00:00",
        "meta_object_name": "GPS BIIF-3  (PRN 24)",
        "meta_object_id": "2012-053A",
        "meta_epoch": "2025-12-22T07:46:34.286880",
        "meta_mean_motion": 2.0056507,
        "meta_eccentricity": 0.0176029,
        "meta_inclination": 53.5595,
        "meta_ra_of_asc_node": 150.8462,
        "meta_arg_of_pericenter": 64.1364,
        "meta_mean_anomaly": 297.6424,
        "meta_ephemeris_type": 0,
        "meta_classification_type": "U",
        "meta_norad_cat_id": 38833,
        "meta_element_set_no": 999,
        "meta_rev_at_epoch": 9589,
        "meta_bstar": 0,
        "meta_mean_motion_dot": 6.6e-07,
        "meta_mean_motion_ddot": 0,
        "tle_line1": "1 38833U 12053A   25356.32400795  .00000066  00000+0  00000+0 0  9997",
        "tle_line2": "2 38833  53.5595 150.8462 0176029  64.1364 297.6424  2.00565070 95894"
      },
      "geometry": {
        "type": "Point",
        "coordinates": [
          -5.290063037236061,
          -28.767060020934856
        ]
      }
    },
    {
      "type": "Feature",
      "properties": {
        "norad_id": 39166,
        "name": "GPS BIIF-4  (PRN 27)",
        "group": "gps-ops",
        "lat": -37.55232724928899,
        "lon": -116.90762017637508,
        "alt_km": 20226.57925552973,
        "timestamp": "2025-12-23T14:49:09.649137+00:00",
        "meta_object_name": "GPS BIIF-4  (PRN 27)",
        "meta_object_id": "2013-023A",
        "meta_epoch": "2025-12-22T04:30:56.781216",
        "meta_mean_motion": 2.00564649,
        "meta_eccentricity": 0.01384833,
        "meta_inclination": 54.6439,
        "meta_ra_of_asc_node": 276.1841,
        "meta_arg_of_pericenter": 48.7288,
        "meta_mean_anomaly": 312.4984,
        "meta_ephemeris_type": 0,
        "meta_classification_type": "U",
        "meta_norad_cat_id": 39166,
        "meta_element_set_no": 999,
        "meta_rev_at_epoch": 9233,
        "meta_bstar": 0,
        "meta_mean_motion_dot": -1.5e-07,
        "meta_mean_motion_ddot": 0,
        "tle_line1": "1 39166U 13023A   25356.18815719 -.00000015  00000+0  00000+0 0  9990",
        "tle_line2": "2 39166  54.6439 276.1841 0138483  48.7288 312.4984  2.00564649 92335"
      },
      "geometry": {
        "type": "Point",
        "coordinates": [
          -116.90762017637508,
          -37.55232724928899
        ]
      }
    },
    {
      "type": "Feature",
      "properties": {
        "norad_id": 39533,
        "name": "GPS BIIF-5  (PRN 30)",
        "group": "gps-ops",
        "lat": -33.64091545680028,
        "lon": 127.12678667147135,
        "alt_km": 20187.277196160914,
        "timestamp": "2025-12-23T14:49:09.649149+00:00",
        "meta_object_name": "GPS BIIF-5  (PRN 30)",
        "meta_object_id": "2014-008A",
        "meta_epoch": "2025-12-20T16:28:24.690432",
        "meta_mean_motion": 2.00548724,
        "meta_eccentricity": 0.00795742,
        "meta_inclination": 53.6246,
        "meta_ra_of_asc_node": 156.6308,
        "meta_arg_of_pericenter": 226.1122,
        "meta_mean_anomaly": 133.2164,
        "meta_ephemeris_type": 0,
        "meta_classification_type": "U",
        "meta_norad_cat_id": 39533,
        "meta_element_set_no": 999,
        "meta_rev_at_epoch": 8610,
        "meta_bstar": 0,
        "meta_mean_motion_dot": 6.5e-07,
        "meta_mean_motion_ddot": 0,
        "tle_line1": "1 39533U 14008A   25354.68639688  .00000065  00000+0  00000+0 0  9998",
        "tle_line2": "2 39533  53.6246 156.6308 0079574 226.1122 133.2164  2.00548724 86105"
      },
      "geometry": {
        "type": "Point",
        "coordinates": [
          127.12678667147135,
          -33.64091545680028
        ]
      }
    },
    {
      "type": "Feature",
      "properties": {
        "norad_id": 39741,
        "name": "GPS BIIF-6  (PRN 06)",
        "group": "gps-ops",
        "lat": 50.89192085913029,
        "lon": 104.04027681493172,
        "alt_km": 20269.32303090003,
        "timestamp": "2025-12-23T14:49:09.649162+00:00",
        "meta_object_name": "GPS BIIF-6  (PRN 06)",
        "meta_object_id": "2014-026A",
        "meta_epoch": "2025-12-21T23:12:34.799616",
        "meta_mean_motion": 2.00560759,
        "meta_eccentricity": 0.00394103,
        "meta_inclination": 56.58,
        "meta_ra_of_asc_node": 338.4177,
        "meta_arg_of_pericenter": 319.2097,
        "meta_mean_anomaly": 40.4995,
        "meta_ephemeris_type": 0,
        "meta_classification_type": "U",
        "meta_norad_cat_id": 39741,
        "meta_element_set_no": 999,
        "meta_rev_at_epoch": 8498,
        "meta_bstar": 0,
        "meta_mean_motion_dot": -6.8e-07,
        "meta_mean_motion_ddot": 0,
        "tle_line1": "1 39741U 14026A   25355.96706944 -.00000068  00000+0  00000+0 0  9995",
        "tle_line2": "2 39741  56.5800 338.4177 0039410 319.2097  40.4995  2.00560759 84985"
      },
      "geometry": {
        "type": "Point",
        "coordinates": [
          104.04027681493172,
          50.89192085913029
        ]
      }
    },
    {
      "type": "Feature",
      "properties": {
        "norad_id": 40105,
        "name": "GPS BIIF-7  (PRN 09)",
        "group": "gps-ops",
        "lat": 38.28211222741147,
        "lon": 128.65692924348144,
        "alt_km": 20148.80770742656,
        "timestamp": "2025-12-23T14:49:09.649174+00:00",
        "meta_object_name": "GPS BIIF-7  (PRN 09)",
        "meta_object_id": "2014-045A",
        "meta_epoch": "2025-12-22T13:15:41.120928",
        "meta_mean_motion": 2.00573178,
        "meta_eccentricity": 0.00324213,
        "meta_inclination": 55.2347,
        "meta_ra_of_asc_node": 95.5075,
        "meta_arg_of_pericenter": 120.1432,
        "meta_mean_anomaly": 240.1836,
        "meta_ephemeris_type": 0,
        "meta_classification_type": "U",
        "meta_norad_cat_id": 40105,
        "meta_element_set_no": 999,
        "meta_rev_at_epoch": 8253,
        "meta_bstar": 0,
        "meta_mean_motion_dot": 1e-08,
        "meta_mean_motion_ddot": 0,
        "tle_line1": "1 40105U 14045A   25356.55255927  .00000001  00000+0  00000+0 0  9994",
        "tle_line2": "2 40105  55.2347  95.5075 0032421 120.1432 240.1836  2.00573178 82539"
      },
      "geometry": {
        "type": "Point",
        "coordinates": [
          128.65692924348144,
          38.28211222741147
        ]
      }
    },
    {
      "type": "Feature",
      "properties": {
        "norad_id": 40294,
        "name": "GPS BIIF-8  (PRN 03)",
        "group": "gps-ops",
        "lat": 33.97874201426317,
        "lon": -168.36117824643665,
        "alt_km": 20119.388884398006,
        "timestamp": "2025-12-23T14:49:09.649186+00:00",
        "meta_object_name": "GPS BIIF-8  (PRN 03)",
        "meta_object_id": "2014-068A",
        "meta_epoch": "2025-12-22T22:18:25.520256",
        "meta_mean_motion": 2.00565523,
        "meta_eccentricity": 0.00608321,
        "meta_inclination": 56.8652,
        "meta_ra_of_asc_node": 37.752,
        "meta_arg_of_pericenter": 68.9789,
        "meta_mean_anomaly": 291.7406,
        "meta_ephemeris_type": 0,
        "meta_classification_type": "U",
        "meta_norad_cat_id": 40294,
        "meta_element_set_no": 999,
        "meta_rev_at_epoch": 8167,
        "meta_bstar": 0,
        "meta_mean_motion_dot": -4.8e-07,
        "meta_mean_motion_ddot": 0,
        "tle_line1": "1 40294U 14068A   25356.92946204 -.00000048  00000+0  00000+0 0  9996",
        "tle_line2": "2 40294  56.8652  37.7520 0060832  68.9789 291.7406  2.00565523 81672"
      },
      "geometry": {
        "type": "Point",
        "coordinates": [
          -168.36117824643665,
          33.97874201426317
        ]
      }
    },
    {
      "type": "Feature",
      "properties": {
        "norad_id": 40534,
        "name": "GPS BIIF-9  (PRN 26)",
        "group": "gps-ops",
        "lat": 33.682739841181146,
        "lon": -118.61102696076202,
        "alt_km": 19893.59542723992,
        "timestamp": "2025-12-23T14:49:09.649214+00:00",
        "meta_object_name": "GPS BIIF-9  (PRN 26)",
        "meta_object_id": "2015-013A",
        "meta_epoch": "2025-12-23T01:25:30.749088",
        "meta_mean_motion": 2.00561924,
        "meta_eccentricity": 0.01074449,
        "meta_inclination": 53.1963,
        "meta_ra_of_asc_node": 211.4627,
        "meta_arg_of_pericenter": 38.7335,
        "meta_mean_anomaly": 322.1127,
        "meta_ephemeris_type": 0,
        "meta_classification_type": "U",
        "meta_norad_cat_id": 40534,
        "meta_element_set_no": 999,
        "meta_rev_at_epoch": 7829,
        "meta_bstar": 0,
        "meta_mean_motion_dot": 7.5e-07,
        "meta_mean_motion_ddot": 0,
        "tle_line1": "1 40534U 15013A   25357.05938367  .00000075  00000+0  00000+0 0  9999",
        "tle_line2": "2 40534  53.1963 211.4627 0107444  38.7335 322.1127  2.00561924 78290"
      },
      "geometry": {
        "type": "Point",
        "coordinates": [
          -118.61102696076202,
          33.682739841181146
        ]
      }
    }
  ]
}